     2.100          NAVIGATION                              RINEX VERSION / TYPE
fic2rin                                 06/01/2016 00:04:35 PGM / RUN BY / DATE
                                                            END OF HEADER
31 16  5 31 23 59 44.0  .266190152615D-03 -.193267624127D-11  .000000000000D+00
     .600000000000D+01  .668750000000D+01  .449840166220D-08  .133688318095D+01
     .409781932831D-06  .815889216028D-02  .312924385071D-05  .515375088882D+04
     .259184000000D+06  .968575477600D-07  .883510781748D+00  .186264514923D-06
     .971180063879D+00  .322718750000D+03 -.396850903187D+00 -.831606068302D-08
    -.589310261424D-10  .100000000000D+01  .189900000000D+04  .000000000000D+00
     .240000000000D+01  .000000000000D+00 -.135041773319D-07  .600000000000D+01
     .257376000000D+06  .400000000000D+01
